[
    {
        "Altitude(m)": 559487.6734630348,
        "Argument of Periapsis(deg)": 0.006622991110713501,
        "Eccentricity": 0.0,
        "Inclination(deg)": 53.0,
        "Latitude(deg)": 51.347080660681385,
        "Longitude(deg)": -91.21554481387,
        "Mean Anomaly(deg)": -282.63570713242245,
        "RAAN(deg)": 299.99014336852804,
        "Satellite Name": "Starlink Shell 1 1324",
        "Satellite Number": 1324,
        "Semi-Major Axis(m)": 6931778.249405717,
        "Time(s)": 190
    },
    {
        "Altitude(m)": 559526.8251573103,
        "Argument of Periapsis(deg)": 0.0069715695902247375,
        "Eccentricity": 0.0,
        "Inclination(deg)": 53.0,
        "Latitude(deg)": 51.518055881051524,
        "Longitude(deg)": -90.29205791012728,
        "Mean Anomaly(deg)": -282.0088759288657,
        "RAAN(deg)": 299.9896245984506,
        "Satellite Name": "Starlink Shell 1 1324",
        "Satellite Number": 1324,
        "Semi-Major Axis(m)": 6931778.249405717,
        "Time(s)": 200
    },
    {
        "Altitude(m)": 559564.1318425837,
        "Argument of Periapsis(deg)": 0.007320148069735974,
        "Eccentricity": 0.0,
        "Inclination(deg)": 53.0,
        "Latitude(deg)": 51.68103715956609,
        "Longitude(deg)": -89.36149521610072,
        "Mean Anomaly(deg)": -281.38204472530896,
        "RAAN(deg)": 299.9891058283731,
        "Satellite Name": "Starlink Shell 1 1324",
        "Satellite Number": 1324,
        "Semi-Major Axis(m)": 6931778.249405717,
        "Time(s)": 210
    },
    {
        "Altitude(m)": 559599.5710314924,
        "Argument of Periapsis(deg)": 0.007668726549247212,
        "Eccentricity": 0.0,
        "Inclination(deg)": 53.0,
        "Latitude(deg)": 51.83592084392942,
        "Longitude(deg)": -88.42410960036456,
        "Mean Anomaly(deg)": -280.7552135217523,
        "RAAN(deg)": 299.9885870582956,
        "Satellite Name": "Starlink Shell 1 1324",
        "Satellite Number": 1324,
        "Semi-Major Axis(m)": 6931778.249405717,
        "Time(s)": 220
    },
    {
        "Altitude(m)": 559633.1213792776,
        "Argument of Periapsis(deg)": 0.00801730502875845,
        "Eccentricity": 0.0,
        "Inclination(deg)": 53.0,
        "Latitude(deg)": 51.98260679903634,
        "Longitude(deg)": -87.48017013590822,
        "Mean Anomaly(deg)": -280.1283823181955,
        "RAAN(deg)": 299.9880682882182,
        "Satellite Name": "Starlink Shell 1 1324",
        "Satellite Number": 1324,
        "Semi-Major Axis(m)": 6931778.249405717,
        "Time(s)": 230
    },
    {
        "Altitude(m)": 559664.762694241,
        "Argument of Periapsis(deg)": 0.008365883508269684,
        "Eccentricity": 0.0,
        "Inclination(deg)": 53.0,
        "Latitude(deg)": 52.120998692688495,
        "Longitude(deg)": -86.52996135672507,
        "Mean Anomaly(deg)": -279.50155111463886,
        "RAAN(deg)": 299.98754951814067,
        "Satellite Name": "Starlink Shell 1 1324",
        "Satellite Number": 1324,
        "Semi-Major Axis(m)": 6931778.249405717,
        "Time(s)": 240
    },
    {
        "Altitude(m)": 559694.4759475851,
        "Argument of Periapsis(deg)": 0.008714461987780921,
        "Eccentricity": 0.0,
        "Inclination(deg)": 53.0,
        "Latitude(deg)": 52.251004278410704,
        "Longitude(deg)": -85.57378394262794,
        "Mean Anomaly(deg)": -278.87471991108214,
        "RAAN(deg)": 299.9870307480632,
        "Satellite Name": "Starlink Shell 1 1324",
        "Satellite Number": 1324,
        "Semi-Major Axis(m)": 6931778.249405717,
        "Time(s)": 250
    },
    {
        "Altitude(m)": 559722.2432827016,
        "Argument of Periapsis(deg)": 0.009063040467292158,
        "Eccentricity": 0.0,
        "Inclination(deg)": 53.0,
        "Latitude(deg)": 52.372535673622984,
        "Longitude(deg)": -84.61195380492893,
        "Mean Anomaly(deg)": -278.24788870752536,
        "RAAN(deg)": 299.98651197798574,
        "Satellite Name": "Starlink Shell 1 1324",
        "Satellite Number": 1324,
        "Semi-Major Axis(m)": 6931778.249405717,
        "Time(s)": 260
    },
    {
        "Altitude(m)": 559748.048023912,
        "Argument of Periapsis(deg)": 0.009411618946803396,
        "Eccentricity": 0.0,
        "Inclination(deg)": 53.0,
        "Latitude(deg)": 52.48550963145038,
        "Longitude(deg)": -83.64480108438785,
        "Mean Anomaly(deg)": -277.6210575039687,
        "RAAN(deg)": 299.9859932079083,
        "Satellite Name": "Starlink Shell 1 1324",
        "Satellite Number": 1324,
        "Semi-Major Axis(m)": 6931778.249405717,
        "Time(s)": 270
    },
    {
        "Altitude(m)": 559771.874684572,
        "Argument of Periapsis(deg)": 0.009760197426314633,
        "Eccentricity": 0.0,
        "Inclination(deg)": 53.0,
        "Latitude(deg)": 52.58984780419739,
        "Longitude(deg)": -82.67267057555057,
        "Mean Anomaly(deg)": -276.994226300412,
        "RAAN(deg)": 299.98547443783076,
        "Satellite Name": "Starlink Shell 1 1324",
        "Satellite Number": 1324,
        "Semi-Major Axis(m)": 6931778.249405717,
        "Time(s)": 280
    },
    {
        "Altitude(m)": 559793.7089746372,
        "Argument of Periapsis(deg)": 0.01010877590582587,
        "Eccentricity": 0.0,
        "Inclination(deg)": 53.0,
        "Latitude(deg)": 52.68547699689193,
        "Longitude(deg)": -81.69592055063596,
        "Mean Anomaly(deg)": -276.3673950968552,
        "RAAN(deg)": 299.9849556677533,
        "Satellite Name": "Starlink Shell 1 1324",
        "Satellite Number": 1324,
        "Semi-Major Axis(m)": 6931778.249405717,
        "Time(s)": 290
    },
    {
        "Altitude(m)": 559813.5378076325,
        "Argument of Periapsis(deg)": 0.010457354385337106,
        "Eccentricity": 0.0,
        "Inclination(deg)": 53.0,
        "Latitude(deg)": 52.77232940890886,
        "Longitude(deg)": -80.71492149898899,
        "Mean Anomaly(deg)": -275.74056389329854,
        "RAAN(deg)": 299.98443689767583,
        "Satellite Name": "Starlink Shell 1 1324",
        "Satellite Number": 1324,
        "Semi-Major Axis(m)": 6931778.249405717,
        "Time(s)": 300
    },
    {
        "Altitude(m)": 559831.3493070219,
        "Argument of Periapsis(deg)": 0.010805932864848343,
        "Eccentricity": 0.0,
        "Inclination(deg)": 53.0,
        "Latitude(deg)": 52.850342861968485,
        "Longitude(deg)": -79.73005629698635,
        "Mean Anomaly(deg)": -275.1137326897418,
        "RAAN(deg)": 299.9839181275983,
        "Satellite Name": "Starlink Shell 1 1324",
        "Satellite Number": 1324,
        "Semi-Major Axis(m)": 6931778.249405717,
        "Time(s)": 310
    },
    {
        "Altitude(m)": 559847.1328120014,
        "Argument of Periapsis(deg)": 0.01115451134435958,
        "Eccentricity": 0.0,
        "Inclination(deg)": 53.0,
        "Latitude(deg)": 52.91946101277018,
        "Longitude(deg)": -78.74171878634004,
        "Mean Anomaly(deg)": -274.48690148618516,
        "RAAN(deg)": 299.9833993575209,
        "Satellite Name": "Starlink Shell 1 1324",
        "Satellite Number": 1324,
        "Semi-Major Axis(m)": 6931778.249405717,
        "Time(s)": 320
    },
    {
        "Altitude(m)": 559860.8788826794,
        "Argument of Periapsis(deg)": 0.011503089823870818,
        "Eccentricity": 0.0,
        "Inclination(deg)": 53.0,
        "Latitude(deg)": 52.979633548611325,
        "Longitude(deg)": -77.75031227816801,
        "Mean Anomaly(deg)": -273.8600702826284,
        "RAAN(deg)": 299.98288058744345,
        "Satellite Name": "Starlink Shell 1 1324",
        "Satellite Number": 1324,
        "Semi-Major Axis(m)": 6931778.249405717,
        "Time(s)": 330
    },
    {
        "Altitude(m)": 559872.5793046869,
        "Argument of Periapsis(deg)": 0.011851668303382053,
        "Eccentricity": 0.0,
        "Inclination(deg)": 53.0,
        "Latitude(deg)": 53.03081636443973,
        "Longitude(deg)": -76.75624950111741,
        "Mean Anomaly(deg)": -273.2332390790717,
        "RAAN(deg)": 299.9823618173659,
        "Satellite Name": "Starlink Shell 1 1324",
        "Satellite Number": 1324,
        "Semi-Major Axis(m)": 6931778.249405717,
        "Time(s)": 340
    },
    {
        "Altitude(m)": 559882.2270931635,
        "Argument of Periapsis(deg)": 0.012200246782893292,
        "Eccentricity": 0.0,
        "Inclination(deg)": 53.0,
        "Latitude(deg)": 53.072971719907414,
        "Longitude(deg)": -75.75995097408305,
        "Mean Anomaly(deg)": -272.60640787551495,
        "RAAN(deg)": 299.9818430472885,
        "Satellite Name": "Starlink Shell 1 1324",
        "Satellite Number": 1324,
        "Semi-Major Axis(m)": 6931778.249405717,
        "Time(s)": 350
    },
    {
        "Altitude(m)": 559889.8164961671,
        "Argument of Periapsis(deg)": 0.012548825262404526,
        "Eccentricity": 0.0,
        "Inclination(deg)": 53.0,
        "Latitude(deg)": 53.10606837513417,
        "Longitude(deg)": -74.76184332347157,
        "Mean Anomaly(deg)": -271.9795766719583,
        "RAAN(deg)": 299.981324277211,
        "Satellite Name": "Starlink Shell 1 1324",
        "Satellite Number": 1324,
        "Semi-Major Axis(m)": 6931778.249405717,
        "Time(s)": 360
    },
    {
        "Altitude(m)": 559895.3429974586,
        "Argument of Periapsis(deg)": 0.012897403741915765,
        "Eccentricity": 0.0,
        "Inclination(deg)": 53.0,
        "Latitude(deg)": 53.130081704047555,
        "Longitude(deg)": -73.76235906569045,
        "Mean Anomaly(deg)": -271.35274546840157,
        "RAAN(deg)": 299.98080550713354,
        "Satellite Name": "Starlink Shell 1 1324",
        "Satellite Number": 1324,
        "Semi-Major Axis(m)": 6931778.249405717,
        "Time(s)": 370
    }
]